[{"CCSDS_OMM_VERS":"2.0","COMMENT":"GENERATED VIA SPACE-TRACK.ORG API","CREATION_DATE":"2021-03-22T21:16:12","ORIGINATOR":"18 SPCS","OBJECT_NAME":"TBA - TO BE ASSIGNED","OBJECT_ID":"","CENTER_NAME":"EARTH","REF_FRAME":"TEME","TIME_SYSTEM":"UTC","MEAN_ELEMENT_THEORY":"SGP4","EPOCH":"2021-03-22T17:23:03.285312","MEAN_MOTION":"15.06163126","ECCENTRICITY":"0.00149040","INCLINATION":"97.5680","RA_OF_ASC_NODE":"345.6042","ARG_OF_PERICENTER":"232.2251","MEAN_ANOMALY":"188.9761","EPHEMERIS_TYPE":"0","CLASSIFICATION_TYPE":"U","NORAD_CAT_ID":"88801","ELEMENT_SET_NO":"999","REV_AT_EPOCH":"1","BSTAR":"0.00000000000000","MEAN_MOTION_DOT":"-0.00000062","MEAN_MOTION_DDOT":"0.0000000000000","SEMIMAJOR_AXIS":"6926.075","PERIOD":"95.607","APOAPSIS":"558.262","PERIAPSIS":"537.617","OBJECT_TYPE":"TBA","RCS_SIZE":null,"COUNTRY_CODE":null,"LAUNCH_DATE":null,"SITE":null,"DECAY_DATE":null,"FILE":"2990670","GP_ID":"173928732","TLE_LINE0":"0 TBA - TO BE ASSIGNED","TLE_LINE1":"1 88801U          21081.72434358 -.00000062  00000-0  00000+0 0  9991","TLE_LINE2":"2 88801  97.5680 345.6042 0014904 232.2251 188.9761 15.06163126    13"},{"CCSDS_OMM_VERS":"2.0","COMMENT":"GENERATED VIA SPACE-TRACK.ORG API","CREATION_DATE":"2021-03-23T22:46:12","ORIGINATOR":"18 SPCS","OBJECT_NAME":"TBA - TO BE ASSIGNED","OBJECT_ID":"","CENTER_NAME":"EARTH","REF_FRAME":"TEME","TIME_SYSTEM":"UTC","MEAN_ELEMENT_THEORY":"SGP4","EPOCH":"2021-03-23T18:59:48.313824","MEAN_MOTION":"15.06501230","ECCENTRICITY":"0.00188380","INCLINATION":"97.5611","RA_OF_ASC_NODE":"346.6396","ARG_OF_PERICENTER":"231.9502","MEAN_ANOMALY":"213.3888","EPHEMERIS_TYPE":"0","CLASSIFICATION_TYPE":"U","NORAD_CAT_ID":"88802","ELEMENT_SET_NO":"999","REV_AT_EPOCH":"17","BSTAR":"0.00000000000000","MEAN_MOTION_DOT":"-0.00000063","MEAN_MOTION_DDOT":"0.0000000000000","SEMIMAJOR_AXIS":"6925.038","PERIOD":"95.586","APOAPSIS":"559.949","PERIAPSIS":"533.858","OBJECT_TYPE":"TBA","RCS_SIZE":null,"COUNTRY_CODE":null,"LAUNCH_DATE":null,"SITE":null,"DECAY_DATE":null,"FILE":"2992350","GP_ID":"174008401","TLE_LINE0":"0 TBA - TO BE ASSIGNED","TLE_LINE1":"1 88802U          21082.79153141 -.00000063  00000-0  00000+0 0  9999","TLE_LINE2":"2 88802  97.5611 346.6396 0018838 231.9502 213.3888 15.06501230   178"},{"CCSDS_OMM_VERS":"2.0","COMMENT":"GENERATED VIA SPACE-TRACK.ORG API","CREATION_DATE":"2021-03-23T22:46:12","ORIGINATOR":"18 SPCS","OBJECT_NAME":"TBA - TO BE ASSIGNED","OBJECT_ID":"","CENTER_NAME":"EARTH","REF_FRAME":"TEME","TIME_SYSTEM":"UTC","MEAN_ELEMENT_THEORY":"SGP4","EPOCH":"2021-03-23T18:46:36.921792","MEAN_MOTION":"15.06560429","ECCENTRICITY":"0.00169070","INCLINATION":"97.5690","RA_OF_ASC_NODE":"346.6335","ARG_OF_PERICENTER":"232.4864","MEAN_ANOMALY":"163.4161","EPHEMERIS_TYPE":"0","CLASSIFICATION_TYPE":"U","NORAD_CAT_ID":"88803","ELEMENT_SET_NO":"999","REV_AT_EPOCH":"17","BSTAR":"0.00000000000000","MEAN_MOTION_DOT":"-0.00000063","MEAN_MOTION_DDOT":"0.0000000000000","SEMIMAJOR_AXIS":"6924.857","PERIOD":"95.582","APOAPSIS":"558.430","PERIAPSIS":"535.014","OBJECT_TYPE":"TBA","RCS_SIZE":null,"COUNTRY_CODE":null,"LAUNCH_DATE":null,"SITE":null,"DECAY_DATE":null,"FILE":"2992350","GP_ID":"174008403","TLE_LINE0":"0 TBA - TO BE ASSIGNED","TLE_LINE1":"1 88803U          21082.78237178 -.00000063  00000-0  00000+0 0  9992","TLE_LINE2":"2 88803  97.5690 346.6335 0016907 232.4864 163.4161 15.06560429   175"},{"CCSDS_OMM_VERS":"2.0","COMMENT":"GENERATED VIA SPACE-TRACK.ORG API","CREATION_DATE":"2021-03-22T21:16:12","ORIGINATOR":"18 SPCS","OBJECT_NAME":"TBA - TO BE ASSIGNED","OBJECT_ID":"","CENTER_NAME":"EARTH","REF_FRAME":"TEME","TIME_SYSTEM":"UTC","MEAN_ELEMENT_THEORY":"SGP4","EPOCH":"2021-03-22T17:10:44.314752","MEAN_MOTION":"15.06199515","ECCENTRICITY":"0.00146040","INCLINATION":"97.5824","RA_OF_ASC_NODE":"345.6025","ARG_OF_PERICENTER":"225.8553","MEAN_ANOMALY":"148.9131","EPHEMERIS_TYPE":"0","CLASSIFICATION_TYPE":"U","NORAD_CAT_ID":"88804","ELEMENT_SET_NO":"999","REV_AT_EPOCH":"1","BSTAR":"0.00000000000000","MEAN_MOTION_DOT":"-0.00000062","MEAN_MOTION_DDOT":"0.0000000000000","SEMIMAJOR_AXIS":"6925.963","PERIOD":"95.605","APOAPSIS":"557.943","PERIAPSIS":"537.713","OBJECT_TYPE":"TBA","RCS_SIZE":null,"COUNTRY_CODE":null,"LAUNCH_DATE":null,"SITE":null,"DECAY_DATE":null,"FILE":"2990662","GP_ID":"173928735","TLE_LINE0":"0 TBA - TO BE ASSIGNED","TLE_LINE1":"1 88804U          21081.71579068 -.00000062  00000-0  00000+0 0  9991","TLE_LINE2":"2 88804  97.5824 345.6025 0014604 225.8553 148.9131 15.06199515    15"},{"CCSDS_OMM_VERS":"2.0","COMMENT":"GENERATED VIA SPACE-TRACK.ORG API","CREATION_DATE":"2021-03-22T21:16:12","ORIGINATOR":"18 SPCS","OBJECT_NAME":"TBA - TO BE ASSIGNED","OBJECT_ID":"","CENTER_NAME":"EARTH","REF_FRAME":"TEME","TIME_SYSTEM":"UTC","MEAN_ELEMENT_THEORY":"SGP4","EPOCH":"2021-03-22T15:56:10.691232","MEAN_MOTION":"15.06695266","ECCENTRICITY":"0.00178550","INCLINATION":"97.5630","RA_OF_ASC_NODE":"345.5352","ARG_OF_PERICENTER":"234.5138","MEAN_ANOMALY":"219.6200","EPHEMERIS_TYPE":"0","CLASSIFICATION_TYPE":"U","NORAD_CAT_ID":"88805","ELEMENT_SET_NO":"999","REV_AT_EPOCH":"1","BSTAR":"0.00000000000000","MEAN_MOTION_DOT":"-0.00000063","MEAN_MOTION_DDOT":"0.0000000000000","SEMIMAJOR_AXIS":"6924.444","PERIOD":"95.573","APOAPSIS":"558.672","PERIAPSIS":"533.945","OBJECT_TYPE":"TBA","RCS_SIZE":null,"COUNTRY_CODE":null,"LAUNCH_DATE":null,"SITE":null,"DECAY_DATE":null,"FILE":"2990658","GP_ID":"173928736","TLE_LINE0":"0 TBA - TO BE ASSIGNED","TLE_LINE1":"1 88805U          21081.66401263 -.00000063  00000-0  00000+0 0  9998","TLE_LINE2":"2 88805  97.5630 345.5352 0017855 234.5138 219.6200 15.06695266    17"},{"CCSDS_OMM_VERS":"2.0","COMMENT":"GENERATED VIA SPACE-TRACK.ORG API","CREATION_DATE":"2021-03-22T21:16:12","ORIGINATOR":"18 SPCS","OBJECT_NAME":"TBA - TO BE ASSIGNED","OBJECT_ID":"","CENTER_NAME":"EARTH","REF_FRAME":"TEME","TIME_SYSTEM":"UTC","MEAN_ELEMENT_THEORY":"SGP4","EPOCH":"2021-03-22T17:10:55.278048","MEAN_MOTION":"15.06411866","ECCENTRICITY":"0.00171760","INCLINATION":"97.5635","RA_OF_ASC_NODE":"345.6028","ARG_OF_PERICENTER":"230.7370","MEAN_ANOMALY":"144.6798","EPHEMERIS_TYPE":"0","CLASSIFICATION_TYPE":"U","NORAD_CAT_ID":"88806","ELEMENT_SET_NO":"999","REV_AT_EPOCH":"1","BSTAR":"0.00000000000000","MEAN_MOTION_DOT":"-0.00000062","MEAN_MOTION_DDOT":"0.0000000000000","SEMIMAJOR_AXIS":"6925.312","PERIOD":"95.591","APOAPSIS":"559.072","PERIAPSIS":"535.282","OBJECT_TYPE":"TBA","RCS_SIZE":null,"COUNTRY_CODE":null,"LAUNCH_DATE":null,"SITE":null,"DECAY_DATE":null,"FILE":"2990667","GP_ID":"173928737","TLE_LINE0":"0 TBA - TO BE ASSIGNED","TLE_LINE1":"1 88806U          21081.71591757 -.00000062  00000-0  00000+0 0  9992","TLE_LINE2":"2 88806  97.5635 345.6028 0017176 230.7370 144.6798 15.06411866    17"},{"CCSDS_OMM_VERS":"2.0","COMMENT":"GENERATED VIA SPACE-TRACK.ORG API","CREATION_DATE":"2021-03-22T21:16:12","ORIGINATOR":"18 SPCS","OBJECT_NAME":"TBA - TO BE ASSIGNED","OBJECT_ID":"","CENTER_NAME":"EARTH","REF_FRAME":"TEME","TIME_SYSTEM":"UTC","MEAN_ELEMENT_THEORY":"SGP4","EPOCH":"2021-03-22T19:05:55.461120","MEAN_MOTION":"15.05871561","ECCENTRICITY":"0.00198240","INCLINATION":"97.5573","RA_OF_ASC_NODE":"345.6564","ARG_OF_PERICENTER":"242.6376","MEAN_ANOMALY":"204.9155","EPHEMERIS_TYPE":"0","CLASSIFICATION_TYPE":"U","NORAD_CAT_ID":"88807","ELEMENT_SET_NO":"999","REV_AT_EPOCH":"1","BSTAR":"0.00000000000000","MEAN_MOTION_DOT":"-0.00000062","MEAN_MOTION_DDOT":"0.0000000000000","SEMIMAJOR_AXIS":"6926.969","PERIOD":"95.626","APOAPSIS":"562.566","PERIAPSIS":"535.102","OBJECT_TYPE":"TBA","RCS_SIZE":null,"COUNTRY_CODE":null,"LAUNCH_DATE":null,"SITE":null,"DECAY_DATE":null,"FILE":"2990650","GP_ID":"173928738","TLE_LINE0":"0 TBA - TO BE ASSIGNED","TLE_LINE1":"1 88807U          21081.79578080 -.00000062  00000-0  00000+0 0  9995","TLE_LINE2":"2 88807  97.5573 345.6564 0019824 242.6376 204.9155 15.05871561    12"},{"CCSDS_OMM_VERS":"2.0","COMMENT":"GENERATED VIA SPACE-TRACK.ORG API","CREATION_DATE":"2021-03-24T14:26:12","ORIGINATOR":"18 SPCS","OBJECT_NAME":"TBA - TO BE ASSIGNED","OBJECT_ID":"","CENTER_NAME":"EARTH","REF_FRAME":"TEME","TIME_SYSTEM":"UTC","MEAN_ELEMENT_THEORY":"SGP4","EPOCH":"2021-03-24T10:53:13.302816","MEAN_MOTION":"15.05599366","ECCENTRICITY":"0.00230870","INCLINATION":"97.5531","RA_OF_ASC_NODE":"347.2237","ARG_OF_PERICENTER":"219.6619","MEAN_ANOMALY":"207.8669","EPHEMERIS_TYPE":"0","CLASSIFICATION_TYPE":"U","NORAD_CAT_ID":"88808","ELEMENT_SET_NO":"999","REV_AT_EPOCH":"26","BSTAR":"0.00000000000000","MEAN_MOTION_DOT":"-0.00000062","MEAN_MOTION_DDOT":"0.0000000000000","SEMIMAJOR_AXIS":"6927.803","PERIOD":"95.643","APOAPSIS":"565.663","PERIAPSIS":"533.674","OBJECT_TYPE":"TBA","RCS_SIZE":null,"COUNTRY_CODE":null,"LAUNCH_DATE":null,"SITE":null,"DECAY_DATE":null,"FILE":"2993016","GP_ID":"174042957","TLE_LINE0":"0 TBA - TO BE ASSIGNED","TLE_LINE1":"1 88808U          21083.45362619 -.00000062  00000-0  00000+0 0  9990","TLE_LINE2":"2 88808  97.5531 347.2237 0023087 219.6619 207.8669 15.05599366   261"}]